NORAD_CAT_ID,OBJECT_NAME,OBJECT_TYPE,EPOCH,MEAN_MOTION,ECCENTRICITY,INCLINATION,RA_OF_ASC_NODE,ARG_OF_PERICENTER,MEAN_ANOMALY,BSTAR,MEAN_MOTION_DOT,MEAN_MOTION_DDOT,TLE_LINE0,TLE_LINE1,TLE_LINE2,SEMIMAJOR_AXIS,PERIOD,APOGEE,PERIGEE,DECAYED
56777.0,STARLINK-5582,PAYLOAD,2023-08-20 06:54:28,15.69924083,0.0002526,69.9999,185.5299,279.496,80.595,1.9997e-05,2.193e-05,0.0,0 STARLINK-5582,1 56777U 23078L   23232.28782724  .00002193  00000-0  19997-4 0  9998,2 56777  69.9999 185.5299 0002526 279.4960  80.5950 15.69924083 13026,6737.251,91.724,360.818,357.414,0.0
56777.0,STARLINK-5582,PAYLOAD,2023-08-20 23:43:44,15.69914083,0.0004188,69.9989,183.5595,283.6005,76.4724,-3.6761e-06,-6.55e-06,0.0,0 STARLINK-5582,1 56777U 23078L   23232.98871295 -.00000655  00000-0 -36761-5 0  9999,2 56777  69.9989 183.5595 0004188 283.6005  76.4724 15.69914083 13139,6737.28,91.725,361.966,356.323,0.0
56777.0,STARLINK-5582,PAYLOAD,2023-08-21 07:22:30,15.6992675,0.0003066,70.0003,182.664,266.683,93.4015,2.7238e-05,3.064e-05,0.0,0 STARLINK-5582,1 56777U 23078L   23233.30729320  .00003064  00000-0  27238-4 0  9990,2 56777  70.0003 182.6640 0003066 266.6830  93.4015 15.69926750 13182,6737.244,91.724,361.174,357.043,0.0
56777.0,STARLINK-5582,PAYLOAD,2023-08-22 07:50:32,15.6992866,0.0003233,70.0006,179.7988,268.6467,91.4358,3.3424e-05,3.809e-05,0.0,0 STARLINK-5582,1 56777U 23078L   23234.32676043  .00003809  00000-0  33424-4 0  9997,2 56777  70.0006 179.7988 0003233 268.6467  91.4358 15.69928660 13349,6737.238,91.724,361.281,356.925,0.0
56777.0,STARLINK-5582,PAYLOAD,2023-08-24 05:43:05,15.69910795,0.0003109,69.9997,174.423,271.7311,88.3529,-6.2889e-05,-7.763e-05,0.0,0 STARLINK-5582,1 56777U 23078L   23236.23826100 -.00007763  00000-0 -62889-4 0  9992,2 56777  69.9997 174.4230 0003109 271.7311  88.3529 15.69910795 13381,6737.289,91.725,361.249,357.06,0.0
56777.0,STARLINK-5582,PAYLOAD,2023-08-24 22:32:22,15.69921842,0.0003466,69.9997,172.4507,272.6495,87.4304,2.6846e-06,1.1e-06,0.0,0 STARLINK-5582,1 56777U 23078L   23236.93914446  .00000110  00000-0  26846-5 0  9991,2 56777  69.9997 172.4507 0003466 272.6495  87.4304 15.69921842 13752,6737.258,91.724,361.458,356.787,0.0
56777.0,STARLINK-5582,PAYLOAD,2023-08-25 04:39:22,15.69928526,0.000332,70.0,171.7344,268.1976,91.8839,4.54e-05,5.251e-05,0.0,0 STARLINK-5582,1 56777U 23078L   23237.19401109  .00005251  00000-0  45400-4 0  9994,2 56777  70.0000 171.7344 0003320 268.1976  91.8839 15.69928526 13538,6737.238,91.724,361.34,356.867,0.0
56777.0,STARLINK-5582,PAYLOAD,2023-08-25 23:00:24,15.69928528,0.0003283,69.9987,169.585,262.9567,97.1256,7.2356e-05,8.498e-05,0.0,0 STARLINK-5582,1 56777U 23078L   23237.95861442  .00008498  00000-0  72356-4 0  9994,2 56777  69.9987 169.5850 0003283 262.9567  97.1256 15.69928528 13918,6737.238,91.724,361.315,356.892,0.0
56777.0,STARLINK-5582,PAYLOAD,2023-08-26 05:07:24,15.69932604,0.0003288,69.9986,168.8685,262.3682,97.714,6.9253e-05,8.125e-05,0.0,0 STARLINK-5582,1 56777U 23078L   23238.21347998  .00008125  00000-0  69253-4 0  9998,2 56777  69.9986 168.8685 0003288 262.3682  97.7140 15.69932604 13695,6737.227,91.724,361.307,356.877,0.0
56777.0,STARLINK-5582,PAYLOAD,2023-08-26 20:24:55,15.69934249,0.0003277,70.0001,167.0795,259.7851,100.2975,4.8904e-05,5.674e-05,0.0,0 STARLINK-5582,1 56777U 23078L   23238.85064547  .00005674  00000-0  48904-4 0  9990,2 56777  70.0001 167.0795 0003277 259.7851 100.2975 15.69934249 13799,6737.222,91.724,361.295,356.879,0.0
56777.0,STARLINK-5582,PAYLOAD,2023-08-26 23:28:26,15.69915835,0.0003344,70.0,166.7216,261.0273,99.0544,-1.413e-05,-1.911e-05,0.0,0 STARLINK-5582,1 56777U 23078L   23238.97808371 -.00001911  00000-0 -14130-4 0  9990,2 56777  70.0000 166.7216 0003344 261.0273  99.0544 15.69915835 14070,6737.275,91.725,361.393,356.887,0.0
56777.0,STARLINK-5582,PAYLOAD,2023-08-27 04:03:41,15.69919644,0.000319,70.0009,166.1847,257.8626,102.2213,-2.0555e-06,-4.6e-06,0.0,0 STARLINK-5582,1 56777U 23078L   23239.16923359 -.00000460  00000-0 -20555-5 0  9993,2 56777  70.0009 166.1847 0003190 257.8626 102.2213 15.69919644 13843,6737.264,91.724,361.278,356.98,0.0
56777.0,STARLINK-5582,PAYLOAD,2023-08-27 20:52:57,15.69931558,0.0003791,69.9996,164.2119,276.1959,83.8804,3.535e-05,4.041e-05,0.0,0 STARLINK-5582,1 56777U 23078L   23239.87011422  .00004041  00000-0  35350-4 0  9995,2 56777  69.9996 164.2119 0003791 276.1959  83.8804 15.69931558 13956,6737.23,91.724,361.649,356.541,0.0
56777.0,STARLINK-5582,PAYLOAD,2023-08-27 22:24:43,15.69928858,0.0003587,69.9993,164.0321,274.1054,85.9732,2.4613e-05,2.748e-05,0.0,0 STARLINK-5582,1 56777U 23078L   23239.93383146  .00002748  00000-0  24613-4 0  9999,2 56777  69.9993 164.0321 0003587 274.1054  85.9732 15.69928858 14226,6737.238,91.724,361.519,356.686,0.0
56777.0,STARLINK-5582,PAYLOAD,2023-08-28 12:10:41,15.69602161,0.0003511,70.0003,162.4214,232.1341,127.9537,-0.00082921,-0.0009747,0.0,0 STARLINK-5582,1 56777U 23078L   23240.50741972 -.00097470  00000-0 -82921-3 0  9992,2 56777  70.0003 162.4214 0003511 232.1341 127.9537 15.69602161 14310,6738.172,91.743,362.403,357.672,0.0
56777.0,STARLINK-5582,PAYLOAD,2023-08-29 05:00:10,15.69565099,0.0003565,70.0014,160.4532,230.1828,129.9054,-0.00046517,-0.00054964,0.0,0 STARLINK-5582,1 56777U 23078L   23241.20845213 -.00054964  00000-0 -46517-3 0  9995,2 56777  70.0014 160.4532 0003565 230.1828 129.9054 15.69565099 14426,6738.278,91.745,362.546,357.741,0.0
56777.0,STARLINK-5582,PAYLOAD,2023-08-29 08:03:16,15.69916591,0.0002913,70.0006,160.0926,274.9301,85.1562,2.039e-05,2.239e-05,0.0,0 STARLINK-5582,1 56777U 23078L   23241.33560589  .00002239  00000-0  20390-4 0  9997,2 56777  70.0006 160.0926 0002913 274.9301  85.1562 15.69916591 14444,6737.273,91.725,361.1,357.175,0.0
56777.0,STARLINK-5582,PAYLOAD,2023-08-29 23:20:47,15.69926463,0.0003362,70.0002,158.3009,272.7955,87.2856,2.7495e-05,3.095e-05,0.0,0 STARLINK-5582,1 56777U 23078L   23241.97276833  .00003095  00000-0  27495-4 0  9997,2 56777  70.0002 158.3009 0003362 272.7955  87.2856 15.69926463 14541,6737.244,91.724,361.374,356.844,0.0
56777.0,STARLINK-5582,PAYLOAD,2023-08-30 11:34:48,15.69924134,0.0003314,69.9994,156.8704,265.9673,94.1144,2.0341e-05,2.234e-05,0.0,0 STARLINK-5582,1 56777U 23078L   23242.48250515  .00002234  00000-0  20341-4 0  9990,2 56777  69.9994 156.8704 0003314 265.9673  94.1144 15.69924134 14620,6737.251,91.724,361.349,356.883,0.0
56777.0,STARLINK-5582,PAYLOAD,2023-08-31 04:24:04,15.6993071,0.0003518,69.9991,154.8979,268.5487,91.5305,3.8863e-05,4.464e-05,0.0,0 STARLINK-5582,1 56777U 23078L   23243.18338499  .00004464  00000-0  38863-4 0  9991,2 56777  69.9991 154.8979 0003518 268.5487  91.5305 15.69930710 14477,6737.232,91.724,361.467,356.727,0.0
56777.0,STARLINK-5582,PAYLOAD,2023-09-01 10:59:07,15.69931847,0.0002345,69.9973,151.3173,259.264,100.8292,5.5859e-05,6.511e-05,0.0,0 STARLINK-5582,1 56777U 23078L   23244.45772480  .00006511  00000-0  55859-4 0  9993,2 56777  69.9973 151.3173 0002345 259.2640 100.8292 15.69931847 14932,6737.229,91.724,360.674,357.514,0.0
56777.0,STARLINK-5582,PAYLOAD,2023-09-02 03:48:23,15.69922819,0.00037,69.9993,149.3429,265.9961,94.0812,9.1182e-06,8.84e-06,0.0,0 STARLINK-5582,1 56777U 23078L   23245.15860412  .00000884  00000-0  91182-5 0  9991,2 56777  69.9993 149.3429 0003700 265.9961  94.0812 15.69922819 15045,6737.255,91.724,361.613,356.627,0.0
56777.0,STARLINK-5582,PAYLOAD,2023-09-02 19:05:54,15.69934708,0.0003713,69.9991,147.5515,265.639,94.4381,3.5861e-05,4.103e-05,0.0,0 STARLINK-5582,1 56777U 23078L   23245.79576633  .00004103  00000-0  35861-4 0  9999,2 56777  69.9991 147.5515 0003713 265.6390  94.4381 15.69934708 14882,6737.221,91.724,361.587,356.584,0.0
56777.0,STARLINK-5582,PAYLOAD,2023-09-03 01:12:54,15.69933811,0.0004041,69.9976,146.8342,274.5884,85.485,4.4273e-05,5.116e-05,0.0,0 STARLINK-5582,1 56777U 23078L   23246.05063241  .00005116  00000-0  44273-4 0  9997,2 56777  69.9976 146.8342 0004041 274.5884  85.4850 15.69933811 15186,6737.223,91.724,361.811,356.366,0.0
56777.0,STARLINK-5582,PAYLOAD,2023-09-03 10:23:26,15.69916097,0.0003991,69.9978,145.7598,268.317,91.7568,-3.226e-06,-6.01e-06,0.0,0 STARLINK-5582,1 56777U 23078L   23246.43293996 -.00000601  00000-0 -32260-5 0  9991,2 56777  69.9978 145.7598 0003991 268.3170  91.7568 15.69916097 15241,6737.274,91.725,361.828,356.45,0.0
56777.0,STARLINK-5582,PAYLOAD,2023-09-04 03:12:42,15.69922962,0.0003318,69.9986,143.7896,271.2811,88.8004,6.3932e-06,5.56e-06,0.0,0 STARLINK-5582,1 56777U 23078L   23247.13382603  .00000556  00000-0  63932-5 0  9990,2 56777  69.9986 143.7896 0003318 271.2811  88.8004 15.69922962 15359,6737.254,91.724,361.355,356.884,0.0
56777.0,STARLINK-5582,PAYLOAD,2023-09-04 10:51:27,15.69935499,0.0003615,69.9975,142.8942,268.4503,91.6278,3.8728e-05,4.449e-05,0.0,0 STARLINK-5582,1 56777U 23078L   23247.45240330  .00004449  00000-0  38728-4 0  9994,2 56777  69.9975 142.8942 0003615 268.4503  91.6278 15.69935499 15146,6737.219,91.724,361.519,356.648,0.0
56777.0,STARLINK-5582,PAYLOAD,2023-09-05 03:41:18,15.69179653,0.0003562,69.9986,140.9251,279.0787,81.0006,-0.0016004,-0.00182827,0.0,0 STARLINK-5582,1 56777U 23078L   23248.15368541 -.00182827  00000-0 -16004-2 0  9997,2 56777  69.9986 140.9251 0003562 279.0787  81.0006 15.69179653 15518,6739.382,91.768,363.647,358.846,0.0
56777.0,STARLINK-5582,PAYLOAD,2023-09-06 10:17:53,15.68597554,0.0008722,69.9979,137.3455,294.9002,65.1286,-0.0014129,-0.00158411,0.0,0 STARLINK-5582,1 56777U 23078L   23249.42909608 -.00158411  00000-0 -14129-2 0  9991,2 56777  69.9979 137.3455 0008722 294.9002  65.1286 15.68597554 15713,6741.049,91.802,368.794,357.034,0.0
56777.0,STARLINK-5582,PAYLOAD,2023-09-06 20:00:01,15.65315821,0.0003555,69.9985,136.2224,266.4977,206.1088,-0.010531,-0.00953336,0.0,0 STARLINK-5582,1 56777U 23078L   23249.83334491 -.00953336  00000-0 -10531-1 0  9999,2 56777  69.9985 136.2224 0003555 266.4977 206.1088 15.65315821 15771,6750.468,91.994,374.732,369.933,0.0
